[{"OBJECT_NAME":"STARLINK-2107","OBJECT_ID":"2021-017B","EPOCH":"2026-03-09T10:39:47.631456","MEAN_MOTION":15.30195814,"ECCENTRICITY":0.00013756,"INCLINATION":53.1583,"RA_OF_ASC_NODE":127.8359,"ARG_OF_PERICENTER":93.2955,"MEAN_ANOMALY":266.8204,"EPHEMERIS_TYPE":0,"CLASSIFICATION_TYPE":"U","NORAD_CAT_ID":47723,"ELEMENT_SET_NO":999,"REV_AT_EPOCH":27890,"BSTAR":3.8766859e-5,"MEAN_MOTION_DOT":7.89e-6,"MEAN_MOTION_DDOT":0},{"OBJECT_NAME":"CZ-4C DEB","OBJECT_ID":"2015-069C","EPOCH":"2026-03-07T10:00:21.558816","MEAN_MOTION":15.31048021,"ECCENTRICITY":0.00583916,"INCLINATION":97.4862,"RA_OF_ASC_NODE":135.8649,"ARG_OF_PERICENTER":162.5456,"MEAN_ANOMALY":197.781,"EPHEMERIS_TYPE":0,"CLASSIFICATION_TYPE":"U","NORAD_CAT_ID":42670,"ELEMENT_SET_NO":999,"REV_AT_EPOCH":51749,"BSTAR":0.00045809658,"MEAN_MOTION_DOT":0.00014416,"MEAN_MOTION_DDOT":0}]
